ORBCOMM FM37            
1 33064U 08031E   25167.79792074  .00001261  00000+0  19383-3 0  9990
2 33064  48.4415 345.4851 0005010   8.1024   5.5186 14.79772170913996
ORBCOMM FM40            
1 33065U 08031F   25167.71066612  .00001651  00000+0  23271-3 0  9999
2 33065  48.4422 329.9443 0005975  21.8532 351.8187 14.82029461914097
VESSELSAT 1             
1 37840U 11058C   25167.10969783  .00000333  00000+0  37045-4 0  9992
2 37840  19.9614 100.4024 0013713 174.2176 185.8388 14.11353990706154
ORBCOMM FM109           
1 40086U 14040A   25167.84252719  .00000427  00000+0  12821-3 0  9995
2 40086  47.0047  17.9211 0001841 327.0626  33.0145 14.58177899581013
ORBCOMM FM107           
1 40087U 14040B   25167.87118237  .00000526  00000+0  14920-3 0  9997
2 40087  47.0062  18.7510 0001596 274.5746  85.4957 14.58246283581092
ORBCOMM FM106           
1 40088U 14040C   25167.82379745  .00000616  00000+0  13451-3 0  9994
2 40088  47.0587 201.1074 0015972  63.0102 297.2418 14.69445292583425
ORBCOMM FM111           
1 40089U 14040D   25167.94959275  .00001892  00000+0  23539-3 0  9995
2 40089  47.0022  50.7047 0030483 192.1666 167.8498 14.86304073590193
ORBCOMM FM104           
1 40090U 14040E   25167.37899670  .00000379  00000+0  12188-3 0  9993
2 40090  47.0061  54.6726 0016422 203.0191 156.9960 14.56646658580509
